1 45555U 20025AA  23030.46956017  .00006204  00000-0  43503-3 0  9999
2 45555  53.0514 138.3319 0001097 103.4747 256.6364 15.06398860153811
1 45555U 20025AA  23030.53590681  .00006496  00000-0  45454-3 0  9998
2 45555  53.0515 138.0341 0001166 101.6425 258.4695 15.06401190154420
1 45555U 20025AA  23030.60225361  .00006399  00000-0  44807-3 0  9999
2 45555  53.0517 137.7363 0001298 105.8355 254.2777 15.06401441154431
1 45555U 20025AA  23031.46476340  .00005119  00000-0  36224-3 0  9992
2 45555  53.0517 133.8646 0001165  93.9844 266.1278 15.06402793153961
1 45555U 20025AA  23031.53110993  .00005320  00000-0  37576-3 0  9994
2 45555  53.0516 133.5666 0001155  94.2597 265.8524 15.06403317154578
1 45555U 20025AA  23032.45996576  .00003184  00000-0  23250-3 0  9995
2 45555  53.0518 129.3964 0001172  88.0956 272.0167 15.06402810154113
1 45555U 20025AA  23032.52631232  .00002685  00000-0  19908-3 0  9998
2 45555  53.0520 129.0970 0001247  89.5308 270.5824 15.06402189154729
1 45555U 20025AA  23033.52151564  .00001497  00000-0  11940-3 0  9992
2 45555  53.0537 124.6315 0001501  79.3587 280.7571 15.06401748154878
1 45555U 20025AA  23033.72055093  .00002729  00000-0  20196-3 0  9996
2 45555  53.0527 123.7371 0001392  82.9448 277.1699 15.06409201154304
1 45555U 20025AA  23034.05229529 -.00001467  00000-0 -79652-4 0  9992
2 45555  53.0531 122.2488 0001216  85.4128 274.7000 15.06389190154358
1 45555U 20025AA  23034.38403018 -.00000806  00000-0 -35214-4 0  9997
2 45555  53.0529 120.7600 0001289  82.0747 278.0388 15.06391221155001
1 45555U 20025AA  23034.64941495  .00000536  00000-0  54865-4 0  9993
2 45555  53.0524 119.5652 0001374 113.9106 246.2027 15.06394608155040
1 45555U 20025AA  23034.64941495  .00000536  00000-0  54865-4 0  9993
2 45555  53.0524 119.5652 0001374 113.9106 246.2027 15.06394608154443
1 45555U 20025AA  23035.51192164  .00003917  00000-0  28164-3 0  9999
2 45555  53.0524 115.6962 0001237  94.3728 265.7402 15.06406955155177
1 45555U 20025AA  23035.71096138  .00010852  00000-0  74601-3 0  9998
2 45555  53.0527 114.8027 0001192  90.9004 269.2122 15.06415812154609
1 45555U 20025AA  23035.91000472 -.00001537  00000-0 -84356-4 0  9997
2 45555  53.0541 113.9109 0000529 135.9237 224.1794 15.06391754155230
1 45555U 20025AA  23036.17539528 -.00001630  00000-0 -90589-4 0  9994
2 45555  53.0532 112.7179 0000895  94.4889 265.6202 15.06391594154675
1 45555U 20025AA  23036.50712752  .00004074  00000-0  29224-3 0  9993
2 45555  53.0528 111.2291 0001108  96.5911 263.5204 15.06401079155328
1 45555U 20025AA  23036.70616681  .00010580  00000-0  72790-3 0  9994
2 45555  53.0526 110.3355 0001005  92.1327 267.9777 15.06408984154757
1 45555U 20025AA  23036.90520760  .00008558  00000-0  59263-3 0  9990
2 45555  53.0523 109.4416 0000627 108.7043 251.4014 15.06403543155387
1 45555U 20025AA  23036.90520760  .00008558  00000-0  59263-3 0  9990
2 45555  53.0523 109.4416 0000627 108.7043 251.4014 15.06403543154780
1 45555U 20025AA  23037.50232802  .00013603  00000-0  92995-3 0  9990
2 45555  53.0524 106.7595 0001015  92.7248 267.3857 15.06415631155479
1 45555U 20025AA  23037.90040931  .00001406  00000-0  11326-3 0  9991
2 45555  53.0522 104.9736 0000758  89.6535 270.4541 15.06400009155536
1 45555U 20025AA  23037.90040931  .00001406  00000-0  11326-3 0  9991
2 45555  53.0522 104.9736 0000758  89.6535 270.4541 15.06400009154939
1 45555U 20025AA  23038.43118339  .00028707  00000-0  19375-2 0  9992
2 45555  53.0515 102.5913 0001041  74.7753 285.3351 15.06415302155011
1 45555U 20025AA  23038.49752918  .00032734  00000-0  22051-2 0  9995
2 45555  53.0515 102.2935 0001030  73.8476 286.2626 15.06419821155624
1 45555U 20025AA  23038.89561093  .00005601  00000-0  39460-3 0  9997
2 45555  53.0521 100.5057 0000919 101.9275 258.1817 15.06398600155689
1 45555U 20025AA  23038.89561093  .00005601  00000-0  39460-3 0  9997
2 45555  53.0521 100.5057 0000919 101.9275 258.1817 15.06398600155083
1 45555U 20025AA  23039.42638604  .00031040  00000-0  20929-2 0  9995
2 45555  53.0527  98.1215 0001251  95.3254 264.7878 15.06411791155762
1 45555U 20025AA  23039.62542469  .00034817  00000-0  23434-2 0  9999
2 45555  53.0520  97.2279 0001221  93.3505 266.7624 15.06422189155796
1 45555U 20025AA  23039.62542469  .00034817  00000-0  23434-2 0  9999
2 45555  53.0520  97.2279 0001221  93.3505 266.7624 15.06422189155190
1 45555U 20025AA  23040.42159353  .00030478  00000-0  20558-2 0  9998
2 45555  53.0529  93.6549 0001239  92.8990 267.2141 15.06407151155912
1 45555U 20025AA  23040.42159353  .00030478  00000-0  20558-2 0  9998
2 45555  53.0529  93.6549 0001239  92.8990 267.2141 15.06407151155316
1 45555U 20025AA  23041.15141345  .00045624  00000-0  30614-2 0  9994
2 45555  53.0519  90.3777 0001833 125.6336 234.4823 15.06407675156024
1 45555U 20025AA  23041.41679904  .00012963  00000-0  88748-3 0  9992
2 45555  53.0526  89.1853 0001820 122.1127 238.0039 15.06402940155465
1 45555U 20025AA  23041.81488553  .00002835  00000-0  20925-3 0  9994
2 45555  53.0541  87.3974 0002118 108.1285 251.9934 15.06388088156124
1 45555U 20025AA  23041.81488553  .00002835  00000-0  20925-3 0  9994
2 45555  53.0541  87.3974 0002118 108.1285 251.9934 15.06388088155527
1 45555U 20025AA  23041.94757650 -.00000803  00000-0 -35044-4 0  9999
2 45555  53.0525  86.8042 0001456 105.4310 254.6839 15.06390761156146
1 45555U 20025AA  23042.34565688  .00004379  00000-0  31270-3 0  9998
2 45555  53.0531  85.0169 0001526 108.6808 251.4347 15.06399732155605
1 45555U 20025AA  23042.81009871 -.00003300  00000-0 -20290-3 0  9992
2 45555  53.0525  82.9285 0001463  90.5378 269.5779 15.06373755156274
1 45555U 20025AA  23043.07549134  .00006262  00000-0  43918-3 0  9992
2 45555  53.0516  81.7395 0001396  90.6094 269.5055 15.06374365155717
1 45555U 20025AA  23043.47357553  .00020736  00000-0  14070-2 0  9996
2 45555  53.0518  79.9532 0001499  91.3795 268.7365 15.06396086155776
1 45555U 20025AA  23043.53992324  .00025713  00000-0  17389-2 0  9990
2 45555  53.0518  79.6551 0001560  89.9783 270.1384 15.06397769156388
1 45555U 20025AA  23044.46876138  .00027181  00000-0  18341-2 0  9997
2 45555  53.0519  75.4855 0001629  88.9025 271.2150 15.06450444156523
1 45555U 20025AA  23044.80052145  .00015369  00000-0  10478-2 0  9997
2 45555  53.0519  73.9959 0007714  80.2230 279.9629 15.06405747155975
1 45555U 20025AA  23045.25002315 -.00035985  00000-0 -24081-2 0  9994
2 45555  53.0523  71.9785 0001219  87.7144 191.5334 15.06416310156044
1 45555U 20025AA  23045.33126906  .00013379  00000-0  91460-3 0  9993
2 45555  53.0522  71.6132 0003402  81.5936 278.5438 15.06430203156658
1 45555U 20025AA  23045.33126906  .00013379  00000-0  91460-3 0  9993
2 45555  53.0522  71.6132 0003402  81.5936 278.5438 15.06430203156052
1 45555U 20025AA  23045.79569921  .00020926  00000-0  14190-2 0  9991
2 45555  53.0523  69.5278 0001145  88.7472 271.3648 15.06414403156728
1 45555U 20025AA  23045.79569921  .00020926  00000-0  14190-2 0  9991
2 45555  53.0523  69.5278 0001145  88.7472 271.3648 15.06414403156122
1 45555U 20025AA  23046.32647505  .00011913  00000-0  81714-3 0  9999
2 45555  53.0529  67.1448 0001453  98.9386 261.1767 15.06408270156203
1 45555U 20025AA  23046.45916731  .00012908  00000-0  88353-3 0  9994
2 45555  53.0527  66.5486 0001501  99.3828 260.7330 15.06412892156820
1 45555U 20025AA  23047.38801649  .00014922  00000-0  10178-2 0  9995
2 45555  53.0539  62.3792 0001449  84.8884 275.2271 15.06425737156961
1 45555U 20025AA  23047.38801649  .00014922  00000-0  10178-2 0  9995
2 45555  53.0539  62.3792 0001449  84.8884 275.2271 15.06425737156365
1 45555U 20025AA  23048.91667824  .00069339  00000-0  46332-2 0  9993
2 45555  53.0529  55.5167 0001187 103.5288 271.0605 15.06361268156598
1 45555U 20025AA  23049.37844191  .00004998  00000-0  35427-3 0  9992
2 45555  53.0533  53.4446 0001251 100.7720 259.3410 15.06390619157262
1 45555U 20025AA  23049.37844191  .00004998  00000-0  35427-3 0  9992
2 45555  53.0533  53.4446 0001251 100.7720 259.3410 15.06390619156665
1 45555U 20025AA  23049.71017305  .00009275  00000-0  64064-3 0  9991
2 45555  53.0540  51.9552 0001290  99.3591 260.7544 15.06405355156710
1 45555U 20025AA  23050.43997261  .00014742  00000-0  10055-2 0  9995
2 45555  53.0528  48.6781 0001231 100.4573 259.6555 15.06435862157426
1 45555U 20025AA  23050.43997261  .00014742  00000-0  10055-2 0  9995
2 45555  53.0528  48.6781 0001231 100.4573 259.6555 15.06435862156829
1 45555U 20025AA  23050.70536626 -.00004381  00000-0 -27537-3 0  9993
2 45555  53.0538  47.4871 0002251  79.9809 280.1433 15.06401710156865
1 45555U 20025AA  23051.03710460 -.00012143  00000-0 -79791-3 0  9994
2 45555  53.0537  45.9987 0001387  88.7021 271.4127 15.06389650156915
1 45555U 20025AA  23051.23614586 -.00002370  00000-0 -14030-3 0  9994
2 45555  53.0531  45.1039 0001352  87.0264 273.0879 15.06389273157545
1 45555U 20025AA  23051.70057758  .00017215  00000-0  11717-2 0  9998
2 45555  53.0530  43.0187 0001519  87.2209 272.8954 15.06401258157012
1 45555U 20025AA  23052.43038268  .00027130  00000-0  18313-2 0  9990
2 45555  53.0533  39.7426 0001532  85.5087 274.6077 15.06439220157727
1 45555U 20025AA  23052.69577380 -.00000168  00000-0  75948-5 0  9994
2 45555  53.0546  38.5472 0001710 122.6647 237.4507 15.06401574157762
1 45555U 20025AA  23052.69577380 -.00000168  00000-0  75948-5 0  9994
2 45555  53.0546  38.5472 0001710 122.6647 237.4507 15.06401574157166
1 45555U 20025AA  23053.42559985  .00006778  00000-0  47359-3 0  9992
2 45555  53.0538  35.2752 0001457 101.3339 258.7814 15.06390048157870
1 45555U 20025AA  23053.42559985  .00006778  00000-0  47359-3 0  9992
2 45555  53.0538  35.2752 0001457 101.3339 258.7814 15.06390048157274
1 45555U 20025AA  23054.35447237  .00056258  00000-0  37633-2 0  9992
2 45555  53.0549  31.1052 0001719 110.6064 249.5109 15.06423373158019
1 45555U 20025AA  23054.35447237  .00056258  00000-0  37633-2 0  9992
2 45555  53.0549  31.1052 0001719 110.6064 249.5109 15.06423373157412
